{
"type": "FeatureCollection",
"name": "oil_tanks_processed_results",
"features": [
{ "type": "Feature", "properties": { "annotation_id": 34, "height_m": 159.87730148052873, "diameter_m": 107.50359247098699, "rotation_angle": -76.794688491154602, "vertical_direction": "down", "aspect_ratio": 1.487181012333856, "pixel_resolution": 0.51136233844454926, "measurement_type": "OBB" }, "geometry": { "type": "Polygon", "coordinates": [ [ [ 52.690358046443343, 24.109814231641288 ], [ 52.68883243626145, 24.109456253790842 ], [ 52.689054261678521, 24.108510890510786 ], [ 52.690579871860415, 24.108868868361231 ], [ 52.690358046443343, 24.109814231641288 ] ] ] } },
{ "type": "Feature", "properties": { "annotation_id": 35, "height_m": 162.14877208808494, "diameter_m": 110.58368095524933, "rotation_angle": -77.453740943525446, "vertical_direction": "down", "aspect_ratio": 1.4662992829267711, "pixel_resolution": 0.51136233844454926, "measurement_type": "OBB" }, "geometry": { "type": "Polygon", "coordinates": [ [ [ 52.688549195911122, 24.109882220371585 ], [ 52.686997067405535, 24.109536806793805 ], [ 52.687213956580713, 24.108562207377332 ], [ 52.6887660850863, 24.108907620955112 ], [ 52.688549195911122, 24.109882220371585 ] ] ] } },
{ "type": "Feature", "properties": { "annotation_id": 36, "height_m": 165.09747836869579, "diameter_m": 108.25689076093477, "rotation_angle": -76.741368601601977, "vertical_direction": "down", "aspect_ratio": 1.5250528368977723, "pixel_resolution": 0.51136233844454926, "measurement_type": "OBB" }, "geometry": { "type": "Polygon", "coordinates": [ [ [ 52.68674642689556, 24.109880808905039 ], [ 52.685171412598208, 24.109509691832912 ], [ 52.685395686050065, 24.108557879265618 ], [ 52.686970700347416, 24.108928996337745 ], [ 52.68674642689556, 24.109880808905039 ] ] ] } },
{ "type": "Feature", "properties": { "annotation_id": 37, "height_m": 159.86651304074229, "diameter_m": 113.03558106773733, "rotation_angle": -76.252143890729201, "vertical_direction": "down", "aspect_ratio": 1.4143025720807434, "pixel_resolution": 0.51136233844454926, "measurement_type": "OBB" }, "geometry": { "type": "Polygon", "coordinates": [ [ [ 52.686763733401833, 24.112409342809098 ], [ 52.685242302792986, 24.112037111444643 ], [ 52.685485032840617, 24.111044994821963 ], [ 52.687006463449464, 24.111417226186418 ], [ 52.686763733401833, 24.112409342809098 ] ] ] } },
{ "type": "Feature", "properties": { "annotation_id": 39, "height_m": 164.9427436933486, "diameter_m": 113.1637563030452, "rotation_angle": -76.83384043036105, "vertical_direction": "down", "aspect_ratio": 1.4575580475752556, "pixel_resolution": 0.51136233844454926, "measurement_type": "OBB" }, "geometry": { "type": "Polygon", "coordinates": [ [ [ 52.690446377221377, 24.112376873583088 ], [ 52.6888721023738, 24.112008611575803 ], [ 52.689104921296014, 24.111013339280433 ], [ 52.690679196143591, 24.111381601287718 ], [ 52.690446377221377, 24.112376873583088 ] ] ] } },
{ "type": "Feature", "properties": { "annotation_id": 40, "height_m": 162.00579712373195, "diameter_m": 108.17310429205645, "rotation_angle": -75.38345431997972, "vertical_direction": "up", "aspect_ratio": 1.4976532122655246, "pixel_resolution": 0.51136233844454926, "measurement_type": "OBB" }, "geometry": { "type": "Polygon", "coordinates": [ [ [ 52.690917279772002, 24.111018222911675 ], [ 52.692452079085264, 24.111418481509645 ], [ 52.692205273171645, 24.112364863545288 ], [ 52.690670473858383, 24.111964604947318 ], [ 52.690917279772002, 24.111018222911675 ] ] ] } },
{ "type": "Feature", "properties": { "annotation_id": 65, "height_m": 128.81145130884769, "diameter_m": 80.972683215491429, "rotation_angle": -80.298868841452759, "vertical_direction": "down", "aspect_ratio": 1.5908013195764261, "pixel_resolution": 0.51136233844454926, "measurement_type": "OBB" }, "geometry": { "type": "Polygon", "coordinates": [ [ [ 52.709986363355696, 24.136044417417217 ], [ 52.708738670767488, 24.135831120065106 ], [ 52.708861672044392, 24.135111618486587 ], [ 52.710109364632601, 24.135324915838694 ], [ 52.709986363355696, 24.136044417417217 ] ] ] } }
]
}
