{
"type": "FeatureCollection",
"name": "oil_tanks_results",
"features": [
{ "type": "Feature", "properties": { "annotation_id": 130, "height_m": 120.50395020712061, "diameter_m": 78.069061706867757, "rotation_angle": -79.573198115936549, "vertical_direction": "down", "aspect_ratio": 1.543555764248667 }, "geometry": { "type": "Polygon", "coordinates": [ [ [ 52.718834253439404, 24.124352924324818 ], [ 52.717670257991358, 24.124138728298455 ], [ 52.717797671076831, 24.123446333327244 ], [ 52.718961666524876, 24.123660529353607 ], [ 52.718834253439404, 24.124352924324818 ] ] ] } },
{ "type": "Feature", "properties": { "annotation_id": 131, "height_m": 120.50394053540393, "diameter_m": 78.069061527092103, "rotation_angle": -79.573198115936549, "vertical_direction": "down", "aspect_ratio": 1.5435556439164542 }, "geometry": { "type": "Polygon", "coordinates": [ [ [ 52.717831179791823, 24.12436361074446 ], [ 52.716667184343777, 24.124149414718097 ], [ 52.716794597429242, 24.123457019746894 ], [ 52.717958592877288, 24.123671215773257 ], [ 52.717831179791823, 24.12436361074446 ] ] ] } },
{ "type": "Feature", "properties": { "annotation_id": 132, "height_m": 120.50493193499942, "diameter_m": 78.069079863861276, "rotation_angle": -79.57319811616793, "vertical_direction": "down", "aspect_ratio": 1.5435679803724958 }, "geometry": { "type": "Polygon", "coordinates": [ [ [ 52.718826606421146, 24.123268175930956 ], [ 52.717662610973093, 24.123053979904597 ], [ 52.717790024058566, 24.122361584933387 ], [ 52.718954019506612, 24.122575780959746 ], [ 52.718826606421146, 24.123268175930956 ] ] ] } },
{ "type": "Feature", "properties": { "annotation_id": 133, "height_m": 120.5049125915818, "diameter_m": 78.069079505996839, "rotation_angle": -79.573198115874277, "vertical_direction": "down", "aspect_ratio": 1.5435677396750307 }, "geometry": { "type": "Polygon", "coordinates": [ [ [ 52.717807920732334, 24.123289548950247 ], [ 52.716643925284295, 24.123075352923884 ], [ 52.71677133836976, 24.122382957952674 ], [ 52.717935333817799, 24.122597153979036 ], [ 52.717807920732334, 24.123289548950247 ] ] ] } }
]
}
